[{"OBJECT_NAME":"GAOFEN-9 01","OBJECT_ID":"2015-047A","EPOCH":"2026-03-09T23:58:40.833408","MEAN_MOTION":14.82682185,"ECCENTRICITY":0.00289246,"INCLINATION":97.6417,"RA_OF_ASC_NODE":109.1488,"ARG_OF_PERICENTER":104.8974,"MEAN_ANOMALY":255.5446,"EPHEMERIS_TYPE":0,"CLASSIFICATION_TYPE":"U","NORAD_CAT_ID":40894,"ELEMENT_SET_NO":999,"REV_AT_EPOCH":56549,"BSTAR":0.00017529846,"MEAN_MOTION_DOT":1.373e-5,"MEAN_MOTION_DDOT":0},{"OBJECT_NAME":"GEESAT-4 02","OBJECT_ID":"2025-170B","EPOCH":"2026-03-09T22:56:42.362304","MEAN_MOTION":14.83538313,"ECCENTRICITY":0.00104864,"INCLINATION":49.9842,"RA_OF_ASC_NODE":274.4013,"ARG_OF_PERICENTER":60.1628,"MEAN_ANOMALY":300.0351,"EPHEMERIS_TYPE":0,"CLASSIFICATION_TYPE":"U","NORAD_CAT_ID":65120,"ELEMENT_SET_NO":999,"REV_AT_EPOCH":3172,"BSTAR":0.00034262722,"MEAN_MOTION_DOT":2.626e-5,"MEAN_MOTION_DDOT":0}]
